PROGRESS-MS 32          
1 65586U 25204A   25324.86734766  .00014275  00000+0  26737-3 0  9992
2 65586  51.6324 250.7347 0003960 150.1460 209.9755 15.48935269   274
CYGNUS NG-23            
1 65616U 25208A   25324.86734766  .00014275  00000+0  26737-3 0  9990
2 65616  51.6324 250.7347 0003960 150.1460 209.9755 15.48935269   223
DRAGONFLY               
1 65729U 98067XH  25324.49519299  .00113256  00000+0  11320-2 0  9999
2 65729  51.6284 249.0015 0005768 156.4903 203.6356 15.64722952  9672
1998-067XJ              
1 65730U 98067XJ  25324.49868656  .00608220  00000+0  23799-2 0  9998
2 65730  51.6223 245.9925 0012161 154.8277 205.3322 15.84791294  9717
1998-067XK              
1 65731U 98067XK  25324.16831546  .00072372  00000+0  83779-3 0  9999
2 65731  51.6311 251.3233 0006017 130.1607 229.9914 15.61157875  9610
RSP-03                  
1 65732U 98067XL  25324.20491880  .00102651  00000+0  11069-2 0  9994
2 65732  51.6298 250.8143 0006768 132.4175 227.7392 15.62832054  9635
GHS-01                  
1 65733U 98067XM  25324.79401976  .00129313  00000+0  12173-2 0  9997
2 65733  51.6297 247.2504 0006327 155.4040 204.7259 15.66156450  9734
YOTSUBA-KULOVER         
1 65941U 98067XN  25324.51456217  .00057907  00000+0  81531-3 0  9990
2 65941  51.6311 251.3817 0002512 101.0931 259.0343 15.56073445  6390
BOTAN                   
1 65942U 98067XP  25324.81319232  .00081204  00000+0  10586-2 0  9997
2 65942  51.6307 249.6268 0004657 109.5809 250.5686 15.57989430  6448
E-KAGAKU-1              
1 65943U 98067XQ  25324.77109136  .00057209  00000+0  80517-3 0  9993
2 65943  51.6314 250.0966 0004078  90.9518 269.1941 15.56084359  6439
HTV-X1                  
1 66174U 25241A   25324.86734766  .00014275  00000+0  26737-3 0  9997
2 66174  51.6324 250.7347 0003960 150.1460 209.9755 15.48935269  1459
